ONEWEB-0492             
1 54114U 22138B   26001.96943652 -.00000267  00000+0 -69883-3 0  9997
2 54114  87.9215 338.0445 0001566  78.0074 282.1234 13.19724869154912
ONEWEB-0495             
1 54115U 22138C   26001.94733858  .00000151  00000+0  34425-3 0  9995
2 54115  87.9211 338.0525 0001902  61.5056 298.6268 13.19726159154899
ONEWEB-0497             
1 54116U 22138D   26001.95997366  .00000076  00000+0  15640-3 0  9997
2 54116  87.9222 338.0373 0001711  81.4202 278.7124 13.19726145154889
ONEWEB-0499             
1 54117U 22138E   26001.94337225  .00000109  00000+0  23899-3 0  9991
2 54117  87.9212 338.0529 0001912  79.9724 280.1624 13.19728053154899
ONEWEB-0500             
1 54118U 22138F   26001.94576458  .00000143  00000+0  32577-3 0  9996
2 54118  87.9214 338.0403 0001652  84.0197 276.1124 13.19726233154905
ONEWEB-0501             
1 54119U 22138G   26001.97577807  .00000037  00000+0  59026-4 0  9990
2 54119  87.9223 338.0344 0001826  69.3321 290.8007 13.19725781154885
ONEWEB-0502             
1 54120U 22138H   26001.96154951  .00000342  00000+0  82210-3 0  9991
2 54120  87.9226 338.0187 0001784  68.4012 291.7311 13.19724953154906
ONEWEB-0503             
1 54121U 22138J   26001.95049491  .00000096  00000+0  20859-3 0  9990
2 54121  87.9220 338.0248 0002016  85.8218 274.3145 13.19726383154898
